STARLINK-2608           
1 48365U 21038N   26068.17531553  .00011788  00000+0  40909-3 0  9991
2 48365  53.1618 350.2719 0001255  98.1968 261.9176 15.30231293267155
TEVEL2-4                
1 63213U 25052D   26068.69417973  .00020990  00000+0  70363-3 0  9998
2 63213  97.4009 325.1237 0004733  95.3468 264.8313 15.30925813 54879
