[{"OBJECT_NAME":"STARLINK-2608","OBJECT_ID":"2021-038N","EPOCH":"2026-03-09T04:12:27.261792","MEAN_MOTION":15.30231293,"ECCENTRICITY":0.00012557,"INCLINATION":53.1618,"RA_OF_ASC_NODE":350.2719,"ARG_OF_PERICENTER":98.1968,"MEAN_ANOMALY":261.9176,"EPHEMERIS_TYPE":0,"CLASSIFICATION_TYPE":"U","NORAD_CAT_ID":48365,"ELEMENT_SET_NO":999,"REV_AT_EPOCH":26715,"BSTAR":0.00040908631,"MEAN_MOTION_DOT":0.00011788,"MEAN_MOTION_DDOT":0},{"OBJECT_NAME":"TEVEL2-4","OBJECT_ID":"2025-052D","EPOCH":"2026-03-09T16:39:37.129536","MEAN_MOTION":15.30925813,"ECCENTRICITY":0.0004733,"INCLINATION":97.4009,"RA_OF_ASC_NODE":325.1237,"ARG_OF_PERICENTER":95.3468,"MEAN_ANOMALY":264.8313,"EPHEMERIS_TYPE":0,"CLASSIFICATION_TYPE":"U","NORAD_CAT_ID":63213,"ELEMENT_SET_NO":999,"REV_AT_EPOCH":5487,"BSTAR":0.00070362503,"MEAN_MOTION_DOT":0.0002099,"MEAN_MOTION_DDOT":0}]
